[{"OBJECT_NAME":"STARLINK-31055","OBJECT_ID":"2023-192J","EPOCH":"2026-03-09T22:47:01.956480","MEAN_MOTION":15.30184525,"ECCENTRICITY":0.00013974,"INCLINATION":53.1618,"RA_OF_ASC_NODE":61.6305,"ARG_OF_PERICENTER":133.4958,"MEAN_ANOMALY":226.6159,"EPHEMERIS_TYPE":0,"CLASSIFICATION_TYPE":"U","NORAD_CAT_ID":58539,"ELEMENT_SET_NO":999,"REV_AT_EPOCH":12602,"BSTAR":6.6116872e-5,"MEAN_MOTION_DOT":1.599e-5,"MEAN_MOTION_DDOT":0},{"OBJECT_NAME":"OBJECT B","OBJECT_ID":"2024-153B","EPOCH":"2026-03-09T23:15:18.632160","MEAN_MOTION":15.30512917,"ECCENTRICITY":0.00113423,"INCLINATION":97.6622,"RA_OF_ASC_NODE":204.9195,"ARG_OF_PERICENTER":149.8438,"MEAN_ANOMALY":210.3457,"EPHEMERIS_TYPE":0,"CLASSIFICATION_TYPE":"U","NORAD_CAT_ID":60746,"ELEMENT_SET_NO":999,"REV_AT_EPOCH":8476,"BSTAR":0.00066193599,"MEAN_MOTION_DOT":0.00019515,"MEAN_MOTION_DDOT":0}]
